[{"OBJECT_NAME":"STARLINK-31062","OBJECT_ID":"2023-200B","EPOCH":"2026-03-09T22:00:01.999584","MEAN_MOTION":15.1543737,"ECCENTRICITY":0.00014673,"INCLINATION":42.9995,"RA_OF_ASC_NODE":170.267,"ARG_OF_PERICENTER":276.1081,"MEAN_ANOMALY":93.2683,"EPHEMERIS_TYPE":0,"CLASSIFICATION_TYPE":"U","NORAD_CAT_ID":58590,"ELEMENT_SET_NO":999,"REV_AT_EPOCH":578,"BSTAR":0.10382483,"MEAN_MOTION_DOT":0.022068,"MEAN_MOTION_DDOT":0},{"OBJECT_NAME":"ORBASTRO-TR5","OBJECT_ID":"2025-052AC","EPOCH":"2026-03-09T16:13:44.206176","MEAN_MOTION":15.21342195,"ECCENTRICITY":0.00056631,"INCLINATION":97.3978,"RA_OF_ASC_NODE":322.1193,"ARG_OF_PERICENTER":133.5462,"MEAN_ANOMALY":226.6245,"EPHEMERIS_TYPE":0,"CLASSIFICATION_TYPE":"U","NORAD_CAT_ID":63236,"ELEMENT_SET_NO":999,"REV_AT_EPOCH":5468,"BSTAR":0.00031434334,"MEAN_MOTION_DOT":6.976e-5,"MEAN_MOTION_DDOT":0}]
